{
  "type": "FeatureCollection",
  "features": [
    {
      "type": "Feature",
      "properties": {
        "norad_id": 40938,
        "name": "BEIDOU-3S IGSO-2S (C56)",
        "group": "gnss",
        "lat": 38.9738967849122,
        "lon": -55.45007257087483,
        "alt_km": 35955.9027267449,
        "timestamp": "2025-12-17T09:00:17.391971+00:00",
        "meta_object_name": "BEIDOU-3S IGSO-2S (C56)",
        "meta_object_id": "2015-053A",
        "meta_epoch": "2025-12-16T17:14:16.267776",
        "meta_mean_motion": 1.00269476,
        "meta_eccentricity": 0.00605277,
        "meta_inclination": 49.5044,
        "meta_ra_of_asc_node": 260.9581,
        "meta_arg_of_pericenter": 188.7289,
        "meta_mean_anomaly": 350.4326,
        "meta_ephemeris_type": 0,
        "meta_classification_type": "U",
        "meta_norad_cat_id": 40938,
        "meta_element_set_no": 999,
        "meta_rev_at_epoch": 3752,
        "meta_bstar": 0,
        "meta_mean_motion_dot": -1.34e-06,
        "meta_mean_motion_ddot": 0,
        "tle_line1": "1 40938U 15053A   25350.71824384 -.00000134  00000+0  00000+0 0  9997",
        "tle_line2": "2 40938  49.5044 260.9581 0060527 188.7289 350.4326  1.00269476 37521"
      },
      "geometry": {
        "type": "Point",
        "coordinates": [
          -55.45007257087483,
          38.9738967849122
        ]
      }
    },
    {
      "type": "Feature",
      "properties": {
        "norad_id": 41019,
        "name": "GPS BIIF-11 (PRN 10)",
        "group": "gnss",
        "lat": 43.49387591827001,
        "lon": 76.15111363036335,
        "alt_km": 20470.695403440466,
        "timestamp": "2025-12-17T09:00:17.391992+00:00",
        "meta_object_name": "GPS BIIF-11 (PRN 10)",
        "meta_object_id": "2015-062A",
        "meta_epoch": "2025-12-16T07:11:55.851072",
        "meta_mean_motion": 2.00567222,
        "meta_eccentricity": 0.01109218,
        "meta_inclination": 56.8347,
        "meta_ra_of_asc_node": 37.8646,
        "meta_arg_of_pericenter": 230.0329,
        "meta_mean_anomaly": 129.0434,
        "meta_ephemeris_type": 0,
        "meta_classification_type": "U",
        "meta_norad_cat_id": 41019,
        "meta_element_set_no": 999,
        "meta_rev_at_epoch": 7416,
        "meta_bstar": 0,
        "meta_mean_motion_dot": -8.3e-07,
        "meta_mean_motion_ddot": 0,
        "tle_line1": "1 41019U 15062A   25350.29995198 -.00000083  00000+0  00000+0 0  9996",
        "tle_line2": "2 41019  56.8347  37.8646 0110921 230.0329 129.0434  2.00567222 74164"
      },
      "geometry": {
        "type": "Point",
        "coordinates": [
          76.15111363036335,
          43.49387591827001
        ]
      }
    },
    {
      "type": "Feature",
      "properties": {
        "norad_id": 41028,
        "name": "GSAT-15 (GAGAN/PRN 139)",
        "group": "gnss",
        "lat": 0.015148153744968735,
        "lon": -45.163762128371594,
        "alt_km": 35785.27439962282,
        "timestamp": "2025-12-17T09:00:17.392009+00:00",
        "meta_object_name": "GSAT-15 (GAGAN/PRN 139)",
        "meta_object_id": "2015-065A",
        "meta_epoch": "2025-12-16T17:13:31.339776",
        "meta_mean_motion": 1.00270887,
        "meta_eccentricity": 0.00026538,
        "meta_inclination": 0.0372,
        "meta_ra_of_asc_node": 268.5656,
        "meta_arg_of_pericenter": 321.7266,
        "meta_mean_anomaly": 207.1882,
        "meta_ephemeris_type": 0,
        "meta_classification_type": "U",
        "meta_norad_cat_id": 41028,
        "meta_element_set_no": 999,
        "meta_rev_at_epoch": 3696,
        "meta_bstar": 0,
        "meta_mean_motion_dot": -2.34e-06,
        "meta_mean_motion_ddot": 0,
        "tle_line1": "1 41028U 15065A   25350.71772384 -.00000234  00000+0  00000+0 0  9994",
        "tle_line2": "2 41028   0.0372 268.5656 0002653 321.7266 207.1882  1.00270887 36965"
      },
      "geometry": {
        "type": "Point",
        "coordinates": [
          -45.163762128371594,
          0.015148153744968735
        ]
      }
    },
    {
      "type": "Feature",
      "properties": {
        "norad_id": 41174,
        "name": "GSAT0209 (GALILEO 12)",
        "group": "gnss",
        "lat": 51.4138988268658,
        "lon": -132.41669640128802,
        "alt_km": 23219.63628108503,
        "timestamp": "2025-12-17T09:00:17.392022+00:00",
        "meta_object_name": "GSAT0209 (GALILEO 12)",
        "meta_object_id": "2015-079A",
        "meta_epoch": "2025-12-13T16:16:46.046208",
        "meta_mean_motion": 1.70474514,
        "meta_eccentricity": 0.00024314,
        "meta_inclination": 55.7133,
        "meta_ra_of_asc_node": 106.3552,
        "meta_arg_of_pericenter": 349.5598,
        "meta_mean_anomaly": 10.4024,
        "meta_ephemeris_type": 0,
        "meta_classification_type": "U",
        "meta_norad_cat_id": 41174,
        "meta_element_set_no": 999,
        "meta_rev_at_epoch": 6161,
        "meta_bstar": 0,
        "meta_mean_motion_dot": -1e-08,
        "meta_mean_motion_ddot": 0,
        "tle_line1": "1 41174U 15079A   25347.67831072 -.00000001  00000+0  00000+0 0  9994",
        "tle_line2": "2 41174  55.7133 106.3552 0002431 349.5598  10.4024  1.70474514 61616"
      },
      "geometry": {
        "type": "Point",
        "coordinates": [
          -132.41669640128802,
          51.4138988268658
        ]
      }
    },
    {
      "type": "Feature",
      "properties": {
        "norad_id": 41175,
        "name": "GSAT0208 (GALILEO 11)",
        "group": "gnss",
        "lat": -21.43751957700938,
        "lon": 90.71748867926857,
        "alt_km": 23219.993515012622,
        "timestamp": "2025-12-17T09:00:17.392033+00:00",
        "meta_object_name": "GSAT0208 (GALILEO 11)",
        "meta_object_id": "2015-079B",
        "meta_epoch": "2025-12-12T17:24:26.771040",
        "meta_mean_motion": 1.70474307,
        "meta_eccentricity": 0.00018806,
        "meta_inclination": 55.7111,
        "meta_ra_of_asc_node": 106.3784,
        "meta_arg_of_pericenter": 358.3144,
        "meta_mean_anomaly": 1.6545,
        "meta_ephemeris_type": 0,
        "meta_classification_type": "U",
        "meta_norad_cat_id": 41175,
        "meta_element_set_no": 999,
        "meta_rev_at_epoch": 6201,
        "meta_bstar": 0,
        "meta_mean_motion_dot": 4e-08,
        "meta_mean_motion_ddot": 0,
        "tle_line1": "1 41175U 15079B   25346.72530985  .00000004  00000+0  00000+0 0  9991",
        "tle_line2": "2 41175  55.7111 106.3784 0001880 358.3144   1.6545  1.70474307 62017"
      },
      "geometry": {
        "type": "Point",
        "coordinates": [
          90.71748867926857,
          -21.43751957700938
        ]
      }
    },
    {
      "type": "Feature",
      "properties": {
        "norad_id": 41241,
        "name": "IRNSS-1E",
        "group": "gnss",
        "lat": -32.85897165663627,
        "lon": -26.447536222870816,
        "alt_km": 35778.38411335823,
        "timestamp": "2025-12-17T09:00:17.392045+00:00",
        "meta_object_name": "IRNSS-1E",
        "meta_object_id": "2016-003A",
        "meta_epoch": "2025-12-16T15:11:45.803328",
        "meta_mean_motion": 1.00272235,
        "meta_eccentricity": 0.00217171,
        "meta_inclination": 32.8339,
        "meta_ra_of_asc_node": 62.3964,
        "meta_arg_of_pericenter": 188.1276,
        "meta_mean_anomaly": 174.7175,
        "meta_ephemeris_type": 0,
        "meta_classification_type": "U",
        "meta_norad_cat_id": 41241,
        "meta_element_set_no": 999,
        "meta_rev_at_epoch": 3625,
        "meta_bstar": 0,
        "meta_mean_motion_dot": -3.06e-06,
        "meta_mean_motion_ddot": 0,
        "tle_line1": "1 41241U 16003A   25350.63316902 -.00000306  00000+0  00000+0 0  9995",
        "tle_line2": "2 41241  32.8339  62.3964 0021717 188.1276 174.7175  1.00272235 36253"
      },
      "geometry": {
        "type": "Point",
        "coordinates": [
          -26.447536222870816,
          -32.85897165663627
        ]
      }
    },
    {
      "type": "Feature",
      "properties": {
        "norad_id": 41328,
        "name": "GPS BIIF-12 (PRN 32)",
        "group": "gnss",
        "lat": -2.6611930599718536,
        "lon": 94.83126086627195,
        "alt_km": 20277.682023550566,
        "timestamp": "2025-12-17T09:00:17.392056+00:00",
        "meta_object_name": "GPS BIIF-12 (PRN 32)",
        "meta_object_id": "2016-007A",
        "meta_epoch": "2025-12-14T21:16:57.823104",
        "meta_mean_motion": 2.00560623,
        "meta_eccentricity": 0.00922757,
        "meta_inclination": 55.4074,
        "meta_ra_of_asc_node": 96.7717,
        "meta_arg_of_pericenter": 243.6198,
        "meta_mean_anomaly": 115.4149,
        "meta_ephemeris_type": 0,
        "meta_classification_type": "U",
        "meta_norad_cat_id": 41328,
        "meta_element_set_no": 999,
        "meta_rev_at_epoch": 7214,
        "meta_bstar": 0,
        "meta_mean_motion_dot": -3.3e-07,
        "meta_mean_motion_ddot": 0,
        "tle_line1": "1 41328U 16007A   25348.88678036 -.00000033  00000+0  00000+0 0  9995",
        "tle_line2": "2 41328  55.4074  96.7717 0092275 243.6198 115.4149  2.00560623 72143"
      },
      "geometry": {
        "type": "Point",
        "coordinates": [
          94.83126086627195,
          -2.6611930599718536
        ]
      }
    }
  ]
}